#aV2024 10 28  0  0  0.00000000     288 DD+AD WGS84 FIT  NGA
## 2338  86400.00000000   300.00000000 60611 0.0000000000000
+   31     2  3  4  5  6  7  8  9 10 11 12 13 14 15 16 17 18
+         19 20 21 22 23 24 25 26 27 28 29 30 31 32  0  0  0
+          0  0  0  0  0  0  0  0  0  0  0  0  0  0  0  0  0
+          0  0  0  0  0  0  0  0  0  0  0  0  0  0  0  0  0
+          0  0  0  0  0  0  0  0  0  0  0  0  0  0  0  0  0
++         2  2  2  2  2  2  2  2  2  2  2  2  2  2  2  2  2
++         2  2  2  2  2  2  2  2  2  2  2  2  2  2  0  0  0
++         0  0  0  0  0  0  0  0  0  0  0  0  0  0  0  0  0
++         0  0  0  0  0  0  0  0  0  0  0  0  0  0  0  0  0
++         0  0  0  0  0  0  0  0  0  0  0  0  0  0  0  0  0
%c cc cc ccc ccc cccc cccc cccc cccc ccccc ccccc ccccc ccccc
%c cc cc ccc ccc cccc cccc cccc cccc ccccc ccccc ccccc ccccc
%f  0.0000000  0.000000000  0.00000000000  0.000000000000000
%f  0.0000000  0.000000000  0.00000000000  0.000000000000000
%i    0    0    0    0      0      0      0      0         0
%i    0    0    0    0      0      0      0      0         0
/*      NGA, ST. LOUIS,MO.                                  
/*   EPHEMERIS COMPUTED FROM 2 DAYS OF DATA                 
/*   EPOCHA v9 SMOOTHER                                     
/*   G2296 IERS2010 SATIGS SATAPC                           
*  2024 10 28  3 40  0.00000000
P  2  14961.766200  -3222.362537  22180.756806   -327.495128                    
V  2   6215.309254  26292.438485    -38.128167      0.083755                    
P  3  22620.589553 -11995.550249   6677.837159    583.415184                    
V  3  -5635.617812   6930.612696  30880.750791      0.111771                    
P  4  21593.679269  -2105.680769 -15407.978694    469.443809                    
V  4  17122.865355   9541.100854  22527.262147      0.066439                    
P  5 -18659.693999   -991.638700 -19080.698779   -191.183785                    
V  5  17238.857904 -16436.791141 -16093.559407     -0.012070                    
P  6  -5229.151300 -25798.608298  -2991.691819    -70.780988                    
V  6   1479.036756  -4104.266853  32157.202035     -0.282797                    
P  7   7779.623559 -20044.087696 -14758.065094    -24.090182                    
V  7   5522.496777  19302.104442 -22952.655802      0.028994                    
P  8  25746.344257   5631.482435   4734.277216    397.311263                    
V  8   4819.646253   4608.379456 -30484.343403      0.109903                    
P  9  13453.096792 -10358.772542 -20532.540291    417.906884                    
V  9  23913.863866   9861.881849  10678.787092      0.167335                    
P 10  -3003.866307  18341.249267  19055.698136   -174.261224                    
V 10 -19459.872580  13740.603425 -16811.312424     -0.138460                    
P 11 -12446.987744 -17618.440470 -15499.893080   -746.984765                    
V 11    -52.414922 -19796.139043  22428.629013     -0.024044                    
P 12 -23341.621840   7643.741503   9765.546631   -548.160324                    
V 12   9140.704136  -9362.003401  28400.374332     -0.026070                    
P 13 -22606.594777 -14144.194088  -1374.453525    683.491545                    
V 13   2383.087601  -1224.900693 -31781.058462      0.017222                    
P 14   6902.560420 -19816.985622  16190.939914    527.206428                    
V 14  17869.680327 -10529.137154 -20789.911535      0.083271                    
P 15 -26037.887480  -2503.078336   4534.292590    220.900478                    
V 15  -5474.026388  -4777.673949 -30400.001963      0.044810                    
P 16  15819.722615   6881.068924 -20652.808910   -143.430906                    
V 16 -20818.701251  14460.985349 -10875.456109      0.098979                    
P 17  -2820.252419 -17031.245554  20551.816449    580.129627                    
V 17  23206.386817   9875.267811  11789.307305     -0.136242                    
P 18  -7017.739109  21242.817054 -14111.380194   -659.267946                    
V 18  -4191.190713 -17645.853024 -24651.465130     -0.009570                    
P 19 -13048.467906 -18198.079318  14462.536758    555.843868                    
V 19  17129.166843   7046.805351  23657.747196      0.045826                    
P 20 -10824.804363 -10812.716143 -21637.350803    369.261670                    
V 20  18380.224289 -20682.191081    991.720590     -0.003489                    
P 21  16250.083626   4400.070644  21158.191251     98.800418                    
V 21   5760.703035  25085.342501  -8764.309031     -0.008748                    
P 22   -318.145782 -17124.551688  20777.055101    -74.772280                    
V 22  21692.843557 -13240.938408 -10490.358562     -0.031606                    
P 23 -15011.413856  19989.075582   8658.614414    351.011120                    
V 23  -9832.248534   5363.695448 -29761.630856      0.080662                    
P 24 -15733.257437    900.697856  20952.549645   -483.129862                    
V 24  -6417.069674 -26994.869070  -3177.615816      0.016102                    
P 25 -19616.531222  17637.291724  -1717.461132    499.347284                    
V 25  -3520.125269  -1479.894249  31583.873038     -0.001923                    
P 26   6365.243035  15308.843248 -20858.022882     44.683568                    
V 26 -19891.581371  17215.352764   7004.129505     -0.097851                    
P 27  22692.489554  13159.401714  -5730.828586    -34.716862                    
V 27  -7207.873393   -274.739147 -30351.037772     -0.000878                    
P 28   5085.093704  26058.088764   -728.872845   -460.432904                    
V 28  -2601.471582   1377.899316  31755.138861     -0.124268                    
P 29 -15453.978309   7868.243442 -20195.096249   -568.127454                    
V 29 -22469.195187 -12073.059745  12393.657114      0.028029                    
P 30    664.077571 -25711.359869  -5895.325669   -293.680819                    
V 30   4795.836251   7143.812812 -30134.209472      0.076200                    
P 31  11049.465402  20904.334575 -11950.255130   -222.716547                    
V 31   -924.301321  15177.951559  26590.278960      0.005843                    
P 32   6581.631793  17122.365846  19498.949285   -581.398362                    
V 32 -22976.416421  -7744.428900  14519.899974      0.047802                    
EOF
